NORAD_CAT_ID,OBJECT_NAME,OBJECT_TYPE,EPOCH,MEAN_MOTION,ECCENTRICITY,INCLINATION,RA_OF_ASC_NODE,ARG_OF_PERICENTER,MEAN_ANOMALY,BSTAR,MEAN_MOTION_DOT,MEAN_MOTION_DDOT,TLE_LINE0,TLE_LINE1,TLE_LINE2,SEMIMAJOR_AXIS,PERIOD,APOGEE,PERIGEE,DECAYED
49743.0,STARLINK-3239,PAYLOAD,2022-12-12 12:08:37,15.0885092,0.0002301,53.2172,60.6401,36.8376,323.2774,0.00030629,4.591e-05,0.0,0 STARLINK-3239,1 49743U 21115V   22346.50599451  .00004591  00000-0  30629-3 0  9994,2 49743  53.2172  60.6401 0002301  36.8376 323.2774 15.08850920 56912,6917.847,95.437,541.304,538.12,0.0
49743.0,STARLINK-3239,PAYLOAD,2022-12-13 05:37:52,15.08843821,0.0002189,53.2172,57.3682,41.5451,318.5707,9.5689e-05,1.235e-05,0.0,0 STARLINK-3239,1 49743U 21115V   22347.23463513  .00001235  00000-0  95689-4 0  9994,2 49743  53.2172  57.3682 0002189  41.5451 318.5707 15.08843821 58138,6917.869000000002,95.437,541.248,538.219,0.0
49743.0,STARLINK-3239,PAYLOAD,2022-12-13 13:34:48,15.08845993,0.0002264,53.2168,55.8814,35.7127,324.4016,0.00016089,2.274e-05,0.0,0 STARLINK-3239,1 49743U 21115V   22347.56583451  .00002274  00000-0  16089-3 0  9994,2 49743  53.2168  55.8814 0002264  35.7127 324.4016 15.08845993 57075,6917.861999999999,95.437,541.293,538.161,0.0
49743.0,STARLINK-3239,PAYLOAD,2022-12-13 15:10:11,15.08845675,0.000227,53.2168,55.5841,35.6053,324.509,0.0001523,2.137e-05,0.0,0 STARLINK-3239,1 49743U 21115V   22347.63207449  .00002137  00000-0  15230-3 0  9997,2 49743  53.2168  55.5841 0002270  35.6053 324.5090 15.08845675 57087,6917.863,95.437,541.298,538.158,0.0
49743.0,STARLINK-3239,PAYLOAD,2022-12-14 13:25:35,15.08844167,0.0002326,53.2162,51.4228,32.337,327.7764,0.00011553,1.551e-05,0.0,0 STARLINK-3239,1 49743U 21115V   22348.55943378  .00001551  00000-0  11553-3 0  9990,2 49743  53.2162  51.4228 0002326  32.3370 327.7764 15.08844167 58330,6917.868,95.437,541.342,538.124,0.0
49743.0,STARLINK-3239,PAYLOAD,2022-12-14 16:36:21,15.08841953,0.0002362,53.2157,50.8282,33.9095,326.2048,4.988e-05,5.06e-06,0.0,0 STARLINK-3239,1 49743U 21115V   22348.69191491  .00000506  00000-0  49880-4 0  9990,2 49743  53.2157  50.8282 0002362  33.9095 326.2048 15.08841953 57246,6917.874,95.437,541.373,538.105,0.0
49743.0,STARLINK-3239,PAYLOAD,2022-12-15 13:16:21,15.08848502,0.0002372,53.217,46.9612,34.3864,325.7281,0.00019502,2.818e-05,0.0,0 STARLINK-3239,1 49743U 21115V   22349.55303187  .00002818  00000-0  19502-3 0  9998,2 49743  53.2170  46.9612 0002372  34.3864 325.7281 15.08848502 57378,6917.854,95.437,541.36,538.078,0.0
49743.0,STARLINK-3239,PAYLOAD,2022-12-15 21:13:17,15.08839745,0.0002308,53.2157,45.4756,27.9624,332.1491,8.4459e-06,-1.54e-06,0.0,0 STARLINK-3239,1 49743U 21115V   22349.88423324 -.00000154  00000-0  84459-5 0  9997,2 49743  53.2157  45.4756 0002308  27.9624 332.1491 15.08839745 57427,6917.880999999999,95.438,541.3430000000002,538.15,0.0
49743.0,STARLINK-3239,PAYLOAD,2022-12-16 13:07:09,15.08843885,0.0002445,53.2164,42.5017,31.3893,328.7244,0.0001012,1.323e-05,0.0,0 STARLINK-3239,1 49743U 21115V   22350.54663444  .00001323  00000-0  10120-3 0  9991,2 49743  53.2164  42.5017 0002445  31.3893 328.7244 15.08843885 57520,6917.869000000002,95.437,541.425,538.0419999999998,0.0
49743.0,STARLINK-3239,PAYLOAD,2022-12-17 03:25:37,15.08841092,0.0002446,53.2171,39.8248,32.4595,327.6547,8.238700000000001e-05,1.023e-05,0.0,0 STARLINK-3239,1 49743U 21115V   22351.14279661  .00001023  00000-0  82387-4 0  9994,2 49743  53.2171  39.8248 0002446  32.4595 327.6547 15.08841092 58720,6917.877,95.437,541.434,538.05,0.0
49743.0,STARLINK-3239,PAYLOAD,2022-12-17 11:22:33,15.08838213,0.0002419,53.2172,38.3377,31.6403,328.4734,4.9374e-05,4.97e-06,0.0,0 STARLINK-3239,1 49743U 21115V   22351.47399886  .00000497  00000-0  49374-4 0  9995,2 49743  53.2172  38.3377 0002419  31.6403 328.4734 15.08838213 57667,6917.886,95.438,541.424,538.077,0.0
49743.0,STARLINK-3239,PAYLOAD,2022-12-17 20:54:52,15.08839127,0.0002459,53.2172,36.5534,29.5907,330.5224,9.7167e-05,1.258e-05,0.0,0 STARLINK-3239,1 49743U 21115V   22351.87143896  .00001258  00000-0  97167-4 0  9996,2 49743  53.2172  36.5534 0002459  29.5907 330.5224 15.08839127 57721,6917.8830000000025,95.438,541.4490000000002,538.047,0.0
49743.0,STARLINK-3239,PAYLOAD,2022-12-18 11:13:21,15.08830655,0.0002399,53.2177,33.8773,27.9419,332.1701,1.0084e-05,-1.28e-06,0.0,0 STARLINK-3239,1 49743U 21115V   22352.46760669 -.00000128  00000-0  10084-4 0  9994,2 49743  53.2177  33.8773 0002399  27.9419 332.1701 15.08830655 57819,6917.909000000002,95.438,541.434,538.114,0.0
49743.0,STARLINK-3239,PAYLOAD,2022-12-18 12:48:44,15.08831188,0.0002412,53.2178,33.5799,28.0133,332.0989,8.651900000000001e-06,-1.51e-06,0.0,0 STARLINK-3239,1 49743U 21115V   22352.53384639 -.00000151  00000-0  86519-5 0  9994,2 49743  53.2178  33.5799 0002412  28.0133 332.0989 15.08831188 58939,6917.906999999997,95.438,541.441,538.104,0.0
49743.0,STARLINK-3239,PAYLOAD,2022-12-18 14:24:07,15.08831917,0.0002418,53.2178,33.2826,28.092,332.0202,1.0978e-05,-1.14e-06,0.0,0 STARLINK-3239,1 49743U 21115V   22352.60008592 -.00000114  00000-0  10978-4 0  9997,2 49743  53.2178  33.2826 0002418  28.0920 332.0202 15.08831917 57833,6917.905,95.438,541.443,538.097,0.0
49743.0,STARLINK-3239,PAYLOAD,2022-12-19 09:28:45,15.08834772,0.0002487,53.2177,29.7144,26.9621,333.15,6.6616e-05,7.72e-06,0.0,0 STARLINK-3239,1 49743U 21115V   22353.39496601  .00000772  00000-0  66616-4 0  9995,2 49743  53.2177  29.7144 0002487  26.9621 333.1500 15.08834772 57954,6917.896,95.438,541.482,538.0409999999998,0.0
49743.0,STARLINK-3239,PAYLOAD,2022-12-19 19:01:02,15.0884759,0.0002478,53.2176,27.9301,26.9097,333.2024,0.00018049,2.586e-05,0.0,0 STARLINK-3239,1 49743U 21115V   22353.79239572  .00002586  00000-0  18049-3 0  9992,2 49743  53.2176  27.9301 0002478  26.9097 333.2024 15.08847590 58017,6917.857,95.437,541.436,538.008,0.0
49743.0,STARLINK-3239,PAYLOAD,2022-12-19 23:47:12,15.08852995,0.0002349,53.2175,27.0379,26.0816,334.0294,0.00017265,2.461e-05,0.0,0 STARLINK-3239,1 49743U 21115V   22353.99111202  .00002461  00000-0  17265-3 0  9994,2 49743  53.2175  27.0379 0002349  26.0816 334.0294 15.08852995 59158,6917.840999999999,95.437,541.331,538.081,0.0
49743.0,STARLINK-3239,PAYLOAD,2022-12-20 04:33:22,15.08846121,0.0002529,53.2169,26.1459,26.2614,333.8506,0.00019819,2.868e-05,0.0,0 STARLINK-3239,1 49743U 21115V   22354.18983942  .00002868  00000-0  19819-3 0  9992,2 49743  53.2169  26.1459 0002529  26.2614 333.8506 15.08846121 59188,6917.861999999999,95.437,541.476,537.977,0.0
49743.0,STARLINK-3239,PAYLOAD,2022-12-20 12:30:17,15.08855988,0.0002467,53.2166,24.6605,24.468000000000004,335.6429,8.1429e-06,-1.59e-06,0.0,0 STARLINK-3239,1 49743U 21115V   22354.52103269 -.00000159  00000-0  81429-5 0  9996,2 49743  53.2166  24.6605 0002467  24.4680 335.6429 15.08855988 58123,6917.831999999999,95.437,541.403,537.99,0.0
49743.0,STARLINK-3239,PAYLOAD,2022-12-20 22:02:36,15.08841207,0.0002628,53.217,22.8758,24.7972,335.3146,8.4251e-05,1.053e-05,0.0,0 STARLINK-3239,1 49743U 21115V   22354.91847946  .00001053  00000-0  84251-4 0  9994,2 49743  53.2170  22.8758 0002628  24.7972 335.3146 15.08841207 59294,6917.877,95.437,541.56,537.924,0.0
49743.0,STARLINK-3239,PAYLOAD,2022-12-21 09:10:19,15.08825758,0.00027,53.217,20.7944,22.3198,337.7911,-0.00017887,-3.133e-05,0.0,0 STARLINK-3239,1 49743U 21115V   22355.38216831 -.00003133  00000-0 -17887-3 0  9992,2 49743  53.2170  20.7944 0002700  22.3198 337.7911 15.08825758 59360,6917.924,95.438,541.6569999999998,537.9209999999998,0.0
49743.0,STARLINK-3239,PAYLOAD,2022-12-22 04:14:56,15.08842366,0.000254,53.2177,17.2256,26.6905,333.4217,6.4079e-05,7.32e-06,0.0,0 STARLINK-3239,1 49743U 21115V   22356.17704346  .00000732  00000-0  64079-4 0  9999,2 49743  53.2177  17.2256 0002540  26.6905 333.4217 15.08842366 59488,6917.873000000001,95.437,541.495,537.981,0.0
49743.0,STARLINK-3239,PAYLOAD,2022-12-22 09:01:06,15.08838806,0.0002112,53.2176,16.331,35.6853,324.428,5.461e-06,-2.01e-06,0.0,0 STARLINK-3239,1 49743U 21115V   22356.37576532 -.00000201  00000-0  54610-5 0  9998,2 49743  53.2176  16.3310 0002112  35.6853 324.4280 15.08838806 58400,6917.884,95.438,541.21,538.288,0.0
49743.0,STARLINK-3239,PAYLOAD,2022-12-22 20:08:48,15.08834639,0.0002539,53.2182,14.2496,28.8046,331.3086,3.4714e-05,2.64e-06,0.0,0 STARLINK-3239,1 49743U 21115V   22356.83944976  .00000264  00000-0  34714-4 0  9990,2 49743  53.2182  14.2496 0002539  28.8046 331.3086 15.08834639 58478,6917.897,95.438,541.518,538.005,0.0
49743.0,STARLINK-3239,PAYLOAD,2022-12-23 00:54:57,15.08837155,0.000251,53.2183,13.3586,27.0257,333.0865,6.3382e-05,7.200000000000001e-06,0.0,0 STARLINK-3239,1 49743U 21115V   22357.03816744  .00000720  00000-0  63382-4 0  9994,2 49743  53.2183  13.3586 0002510  27.0257 333.0865 15.08837155 59610,6917.889,95.438,541.49,538.018,0.0
49743.0,STARLINK-3239,PAYLOAD,2022-12-23 08:51:54,15.08827805,0.0002656,53.2179,11.8717,30.9811,329.1337,0.00011689,1.572e-05,0.0,0 STARLINK-3239,1 49743U 21115V   22357.36937548  .00001572  00000-0  11689-3 0  9994,2 49743  53.2179  11.8717 0002656  30.9811 329.1337 15.08827805 59660,6917.918000000002,95.438,541.62,537.945,0.0
49743.0,STARLINK-3239,PAYLOAD,2022-12-24 07:07:16,15.08850425,0.0002713,53.2182,7.7085,32.9308,327.1853,0.00015881,2.241e-05,0.0,0 STARLINK-3239,1 49743U 21115V   22358.29672114  .00002241  00000-0  15881-3 0  9994,2 49743  53.2182   7.7085 0002713  32.9308 327.1853 15.08850425 59804,6917.849,95.437,541.59,537.837,0.0
49743.0,STARLINK-3239,PAYLOAD,2022-12-24 18:14:59,15.08842305,0.0002811,53.2174,5.6276,32.6938,327.4228,0.00010568,1.394e-05,0.0,0 STARLINK-3239,1 49743U 21115V   22358.76040666  .00001394  00000-0  10568-3 0  9992,2 49743  53.2174   5.6276 0002811  32.6938 327.4228 15.08842305 59873,6917.873000000001,95.437,541.683,537.794,0.0
